GLOBALSTAR M057 [-]     
1 25943U 99058A   24027.90030318 -.00000095  00000+0 -17834-4 0  9995
2 25943  52.0017 344.9817 0002980  45.3760 314.7332 12.24778727104892
GLOBALSTAR M059 [-]     
1 25944U 99058B   24027.74920132 -.00000076  00000+0  12675-3 0  9995
2 25944  52.0016 137.2224 0001175 104.1082  62.9887 11.99960447513246
GLOBALSTAR M056 [-]     
1 25945U 99058C   24027.68368383 -.00000121  00000+0 -38652-3 0  9998
2 25945  51.9958 152.3700 0000759 174.8923 294.3737 12.04774744101576
GLOBALSTAR M031 [-]     
1 25946U 99058D   24027.60564884 -.00000079  00000+0  11503-3 0  9992
2 25946  51.9972  75.2212 0001552 209.6266 317.9787 12.16002129102913
GLOBALSTAR M039 [-]     
1 25961U 99062A   24027.32363547 -.00000073  00000+0  17032-3 0  9993
2 25961  51.9869  12.4624 0002627 307.9416  52.1213 12.62280013116208
GLOBALSTAR M034 [-]     
1 25962U 99062B   24027.92437087 -.00000055  00000+0  41986-3 0  9996
2 25962  51.9847 247.3512 0014183 161.0633 301.7699 11.79423782 78656
GLOBALSTAR M029 [-]     
1 25963U 99062C   24027.47464669 -.00000068  00000+0  21932-3 0  9996
2 25963  51.9829  26.4359 0002525 200.3134 331.2960 11.99873052108296
GLOBALSTAR M061 [-]     
1 25964U 99062D   24027.28471976 -.00000032  00000+0  79107-3 0  9993
2 25964  51.9804  66.3305 0006292  95.9454 344.7567 11.76758250 61503
